[{"OBJECT_NAME":"STARLINK-5574","OBJECT_ID":"2023-013AH","EPOCH":"2026-03-09T22:00:01.999584","MEAN_MOTION":15.1097881,"ECCENTRICITY":6.929e-5,"INCLINATION":42.9994,"RA_OF_ASC_NODE":285.7903,"ARG_OF_PERICENTER":278.7783,"MEAN_ANOMALY":205.8969,"EPHEMERIS_TYPE":0,"CLASSIFICATION_TYPE":"U","NORAD_CAT_ID":55362,"ELEMENT_SET_NO":999,"REV_AT_EPOCH":578,"BSTAR":0.0028737942,"MEAN_MOTION_DOT":0.00048923,"MEAN_MOTION_DDOT":0},{"OBJECT_NAME":"DELTA 1 DEB","OBJECT_ID":"1978-026BX","EPOCH":"2026-03-09T21:34:36.806304","MEAN_MOTION":15.0275865,"ECCENTRICITY":0.00371244,"INCLINATION":98.0194,"RA_OF_ASC_NODE":65.5332,"ARG_OF_PERICENTER":51.7385,"MEAN_ANOMALY":308.7169,"EPHEMERIS_TYPE":0,"CLASSIFICATION_TYPE":"U","NORAD_CAT_ID":12230,"ELEMENT_SET_NO":999,"REV_AT_EPOCH":36609,"BSTAR":0.0014350783,"MEAN_MOTION_DOT":0.00019449,"MEAN_MOTION_DDOT":0}]
